{"type": "FeatureCollection", "features": [{"type": "Feature", "properties": {"norad_id": 25590, "name": "COSMOS 2361", "group": "musson", "lat": -8.932455386049377, "lon": 154.17972539271273, "alt_km": 973.3558937259204, "timestamp": "2025-12-27T15:27:11.460506+00:00", "meta": {"OBJECT_NAME": "COSMOS 2361", "OBJECT_ID": "1998-076A", "EPOCH": "2025-12-27T04:05:37.857120", "MEAN_MOTION": 13.73219116, "ECCENTRICITY": 0.00304131, "INCLINATION": 82.9347, "RA_OF_ASC_NODE": 333.4127, "ARG_OF_PERICENTER": 223.8805, "MEAN_ANOMALY": 146.6858, "EPHEMERIS_TYPE": 0, "CLASSIFICATION_TYPE": "U", "NORAD_CAT_ID": 25590, "ELEMENT_SET_NO": 999, "REV_AT_EPOCH": 35309, "BSTAR": 6.9640842e-05, "MEAN_MOTION_DOT": 8e-07, "MEAN_MOTION_DDOT": 0}, "tle": {"line1": "1 25590U 98076A   25361.17057705  .00000080  00000+0  69641-4 0  9997", "line2": "2 25590  82.9347 333.4127 0030413 223.8805 146.6858 13.73219116353090"}}, "geometry": {"type": "Point", "coordinates": [154.17972539271273, -8.932455386049377]}}, {"type": "Feature", "properties": {"norad_id": 26818, "name": "COSMOS 2378", "group": "musson", "lat": -48.14715449715076, "lon": -19.2937171838924, "alt_km": 1012.3846227982312, "timestamp": "2025-12-27T15:27:11.460526+00:00", "meta": {"OBJECT_NAME": "COSMOS 2378", "OBJECT_ID": "2001-023A", "EPOCH": "2025-12-27T05:15:28.941408", "MEAN_MOTION": 13.74143199, "ECCENTRICITY": 0.00333176, "INCLINATION": 82.9272, "RA_OF_ASC_NODE": 348.9878, "ARG_OF_PERICENTER": 164.4002, "MEAN_ANOMALY": 206.5845, "EPHEMERIS_TYPE": 0, "CLASSIFICATION_TYPE": "U", "NORAD_CAT_ID": 26818, "ELEMENT_SET_NO": 999, "REV_AT_EPOCH": 23122, "BSTAR": 5.547045e-05, "MEAN_MOTION_DOT": 6.8e-07, "MEAN_MOTION_DDOT": 0}, "tle": {"line1": "1 26818U 01023A   25361.21908497  .00000068  00000+0  55470-4 0  9996", "line2": "2 26818  82.9272 348.9878 0033317 164.4002 206.5845 13.74143199231220"}}, "geometry": {"type": "Point", "coordinates": [-19.2937171838924, -48.14715449715076]}}, {"type": "Feature", "properties": {"norad_id": 27436, "name": "COSMOS 2389", "group": "musson", "lat": -32.12044656594731, "lon": 120.4070242565936, "alt_km": 1020.9141742583761, "timestamp": "2025-12-27T15:27:11.460540+00:00", "meta": {"OBJECT_NAME": "COSMOS 2389", "OBJECT_ID": "2002-026A", "EPOCH": "2025-12-27T07:59:33.050688", "MEAN_MOTION": 13.75156231, "ECCENTRICITY": 0.00469567, "INCLINATION": 82.9514, "RA_OF_ASC_NODE": 296.1823, "ARG_OF_PERICENTER": 20.8637, "MEAN_ANOMALY": 93.4735, "EPHEMERIS_TYPE": 0, "CLASSIFICATION_TYPE": "U", "NORAD_CAT_ID": 27436, "ELEMENT_SET_NO": 999, "REV_AT_EPOCH": 18349, "BSTAR": 6.5448532e-05, "MEAN_MOTION_DOT": 7.8e-07, "MEAN_MOTION_DDOT": 0}, "tle": {"line1": "1 27436U 02026A   25361.33302142  .00000078  00000+0  65449-4 0  9993", "line2": "2 27436  82.9514 296.1823 0046956  20.8637  93.4735 13.75156231183490"}}, "geometry": {"type": "Point", "coordinates": [120.4070242565936, -32.12044656594731]}}, {"type": "Feature", "properties": {"norad_id": 27818, "name": "COSMOS 2398", "group": "musson", "lat": 16.166563533820838, "lon": -96.2277332475975, "alt_km": 977.9524633371757, "timestamp": "2025-12-27T15:27:11.460553+00:00", "meta": {"OBJECT_NAME": "COSMOS 2398", "OBJECT_ID": "2003-023A", "EPOCH": "2025-12-27T05:25:12.592416", "MEAN_MOTION": 13.72387353, "ECCENTRICITY": 0.00326765, "INCLINATION": 82.9481, "RA_OF_ASC_NODE": 262.0239, "ARG_OF_PERICENTER": 73.2154, "MEAN_ANOMALY": 39.2775, "EPHEMERIS_TYPE": 0, "CLASSIFICATION_TYPE": "U", "NORAD_CAT_ID": 27818, "ELEMENT_SET_NO": 999, "REV_AT_EPOCH": 13015, "BSTAR": 6.3402989e-05, "MEAN_MOTION_DOT": 7.4e-07, "MEAN_MOTION_DDOT": 0}, "tle": {"line1": "1 27818U 03023A   25361.22584019  .00000074  00000+0  63403-4 0  9992", "line2": "2 27818  82.9481 262.0239 0032676  73.2154  39.2775 13.72387353130155"}}, "geometry": {"type": "Point", "coordinates": [-96.2277332475975, 16.166563533820838]}}, {"type": "Feature", "properties": {"norad_id": 28380, "name": "COSMOS 2407", "group": "musson", "lat": 62.35769543545144, "lon": -144.49422964593, "alt_km": 951.8313708889646, "timestamp": "2025-12-27T15:27:11.460564+00:00", "meta": {"OBJECT_NAME": "COSMOS 2407", "OBJECT_ID": "2004-028A", "EPOCH": "2025-12-27T07:15:48.477024", "MEAN_MOTION": 13.7631525, "ECCENTRICITY": 0.00395925, "INCLINATION": 82.9593, "RA_OF_ASC_NODE": 202.11, "ARG_OF_PERICENTER": 14.9644, "MEAN_ANOMALY": 158.1515, "EPHEMERIS_TYPE": 0, "CLASSIFICATION_TYPE": "U", "NORAD_CAT_ID": 28380, "ELEMENT_SET_NO": 999, "REV_AT_EPOCH": 7623, "BSTAR": 4.7748254e-05, "MEAN_MOTION_DOT": 6.2e-07, "MEAN_MOTION_DDOT": 0}, "tle": {"line1": "1 28380U 04028A   25361.30264441  .00000062  00000+0  47748-4 0  9997", "line2": "2 28380  82.9593 202.1100 0039592  14.9644 158.1515 13.76315250 76238"}}, "geometry": {"type": "Point", "coordinates": [-144.49422964593, 62.35769543545144]}}, {"type": "Feature", "properties": {"norad_id": 28521, "name": "COSMOS 2414", "group": "musson", "lat": -47.346963994547195, "lon": 1.1101842995619269, "alt_km": 961.9296037815739, "timestamp": "2025-12-27T15:27:11.460581+00:00", "meta": {"OBJECT_NAME": "COSMOS 2414", "OBJECT_ID": "2005-002A", "EPOCH": "2025-12-27T05:42:43.739136", "MEAN_MOTION": 13.879048, "ECCENTRICITY": 0.00414502, "INCLINATION": 82.949, "RA_OF_ASC_NODE": 173.6965, "ARG_OF_PERICENTER": 99.5469, "MEAN_ANOMALY": 261.0382, "EPHEMERIS_TYPE": 0, "CLASSIFICATION_TYPE": "U", "NORAD_CAT_ID": 28521, "ELEMENT_SET_NO": 999, "REV_AT_EPOCH": 5996, "BSTAR": 5.8432378e-05, "MEAN_MOTION_DOT": 8.6e-07, "MEAN_MOTION_DDOT": 0}, "tle": {"line1": "1 28521U 05002A   25361.23800624  .00000086  00000+0  58432-4 0  9996", "line2": "2 28521  82.9490 173.6965 0041450  99.5469 261.0382 13.87904800 59966"}}, "geometry": {"type": "Point", "coordinates": [1.1101842995619269, -47.346963994547195]}}, {"type": "Feature", "properties": {"norad_id": 32052, "name": "COSMOS 2429", "group": "musson", "lat": 37.81828716543428, "lon": -22.1914716663824, "alt_km": 957.1364157545977, "timestamp": "2025-12-27T15:27:11.460602+00:00", "meta": {"OBJECT_NAME": "COSMOS 2429", "OBJECT_ID": "2007-038A", "EPOCH": "2025-12-27T06:32:18.000384", "MEAN_MOTION": 13.75150856, "ECCENTRICITY": 0.00383593, "INCLINATION": 82.981, "RA_OF_ASC_NODE": 332.595, "ARG_OF_PERICENTER": 357.7669, "MEAN_ANOMALY": 2.331, "EPHEMERIS_TYPE": 0, "CLASSIFICATION_TYPE": "U", "NORAD_CAT_ID": 32052, "ELEMENT_SET_NO": 999, "REV_AT_EPOCH": 91802, "BSTAR": 6.6146117e-05, "MEAN_MOTION_DOT": 7.9e-07, "MEAN_MOTION_DDOT": 0}, "tle": {"line1": "1 32052U 07038A   25361.27243056  .00000079  00000+0  66146-4 0  9998", "line2": "2 32052  82.9810 332.5950 0038359 357.7669   2.3310 13.75150856918020"}}, "geometry": {"type": "Point", "coordinates": [-22.1914716663824, 37.81828716543428]}}, {"type": "Feature", "properties": {"norad_id": 35635, "name": "COSMOS 2454", "group": "musson", "lat": 25.76791598186499, "lon": 160.76851817205346, "alt_km": 913.5569573427056, "timestamp": "2025-12-27T15:27:11.460614+00:00", "meta": {"OBJECT_NAME": "COSMOS 2454", "OBJECT_ID": "2009-039A", "EPOCH": "2025-12-27T04:04:13.625760", "MEAN_MOTION": 13.8993039, "ECCENTRICITY": 0.00198913, "INCLINATION": 82.9559, "RA_OF_ASC_NODE": 157.7063, "ARG_OF_PERICENTER": 34.8041, "MEAN_ANOMALY": 139.4805, "EPHEMERIS_TYPE": 0, "CLASSIFICATION_TYPE": "U", "NORAD_CAT_ID": 35635, "ELEMENT_SET_NO": 999, "REV_AT_EPOCH": 83350, "BSTAR": 5.8932066e-05, "MEAN_MOTION_DOT": 8.9e-07, "MEAN_MOTION_DDOT": 0}, "tle": {"line1": "1 35635U 09039A   25361.16960215  .00000089  00000+0  58932-4 0  9997", "line2": "2 35635  82.9559 157.7063 0019891  34.8041 139.4805 13.89930390833503"}}, "geometry": {"type": "Point", "coordinates": [160.76851817205346, 25.76791598186499]}}, {"type": "Feature", "properties": {"norad_id": 36519, "name": "COSMOS 2463", "group": "musson", "lat": 13.33759629713705, "lon": -165.9193892980297, "alt_km": 989.5654623846485, "timestamp": "2025-12-27T15:27:11.460625+00:00", "meta": {"OBJECT_NAME": "COSMOS 2463", "OBJECT_ID": "2010-017A", "EPOCH": "2025-12-27T04:29:02.150880", "MEAN_MOTION": 13.71650374, "ECCENTRICITY": 0.00348574, "INCLINATION": 82.9602, "RA_OF_ASC_NODE": 16.0951, "ARG_OF_PERICENTER": 246.474, "MEAN_ANOMALY": 184.7384, "EPHEMERIS_TYPE": 0, "CLASSIFICATION_TYPE": "U", "NORAD_CAT_ID": 36519, "ELEMENT_SET_NO": 999, "REV_AT_EPOCH": 78435, "BSTAR": 3.7871441e-05, "MEAN_MOTION_DOT": 4.9e-07, "MEAN_MOTION_DDOT": 0}, "tle": {"line1": "1 36519U 10017A   25361.18683045  .00000049  00000+0  37871-4 0  9997", "line2": "2 36519  82.9602  16.0951 0034857 246.4740 184.7384 13.71650374784358"}}, "geometry": {"type": "Point", "coordinates": [-165.9193892980297, 13.33759629713705]}}]}